NORAD_CAT_ID,OBJECT_NAME,OBJECT_TYPE,EPOCH,MEAN_MOTION,ECCENTRICITY,INCLINATION,RA_OF_ASC_NODE,ARG_OF_PERICENTER,MEAN_ANOMALY,BSTAR,MEAN_MOTION_DOT,MEAN_MOTION_DDOT,TLE_LINE0,TLE_LINE1,TLE_LINE2,SEMIMAJOR_AXIS,PERIOD,APOGEE,PERIGEE,DECAYED
52286.0,STARLINK-3802,PAYLOAD,2023-02-04 12:10:30,15.08843701,9.25e-05,53.2174,128.2178,91.2991,268.8107,0.00010417,1.371e-05,0.0,0 STARLINK-3802,1 52286U 22041AB  23035.50729952  .00001371  00000-0  10417-3 0  9992,2 52286  53.2174 128.2178 0000925  91.2991 268.8107 15.08843701 45258,6917.869,95.437,540.374,539.094,0.0
52286.0,STARLINK-3802,PAYLOAD,2023-02-04 13:45:53,15.08846399,9.18e-05,53.2176,127.9205,91.3242,268.7856,0.00012559,1.712e-05,0.0,0 STARLINK-3802,1 52286U 22041AB  23035.57353681  .00001712  00000-0  12559-3 0  9999,2 52286  53.2176 127.9205 0000918  91.3242 268.7856 15.08846399 44041,6917.861,95.437,540.361,539.091,0.0
52286.0,STARLINK-3802,PAYLOAD,2023-02-04 23:18:13,15.08838994,0.0001013,53.2186,126.1377,77.6166,282.4939,3.7824e-05,3.14e-06,0.0,0 STARLINK-3802,1 52286U 22041AB  23035.97098452  .00000314  00000-0  37824-4 0  9995,2 52286  53.2186 126.1377 0001013  77.6166 282.4939 15.08838994 45321,6917.883,95.438,540.449,539.048,0.0
52286.0,STARLINK-3802,PAYLOAD,2023-02-05 12:01:18,15.08834781,0.0001049,53.2177,123.7578,89.7568,270.3544,-6.1992e-05,-1.274e-05,0.0,0 STARLINK-3802,1 52286U 22041AB  23036.50091303 -.00001274  00000-0 -61992-4 0  9994,2 52286  53.2177 123.7578 0001049  89.7568 270.3544 15.08834781 45403,6917.896,95.438,540.487,539.036,0.0
52286.0,STARLINK-3802,PAYLOAD,2023-02-05 15:12:04,15.08839908,0.0001143,53.2175,123.1625,91.2144,268.8979,-1.592e-05,-5.41e-06,0.0,0 STARLINK-3802,1 52286U 22041AB  23036.63338853 -.00000541  00000-0 -15920-4 0  9998,2 52286  53.2175 123.1625 0001143  91.2144 268.8979 15.08839908 44208,6917.881,95.438,540.536,538.955,0.0
52286.0,STARLINK-3802,PAYLOAD,2023-02-06 11:52:04,15.08851112,0.0001014,53.218,119.2978,83.1965,276.9142,2.3379e-05,8.4e-07,0.0,0 STARLINK-3802,1 52286U 22041AB  23037.49450020  .00000084  00000-0  23379-4 0  9991,2 52286  53.2180 119.2978 0001014  83.1965 276.9142 15.08851112 45551,6917.846,95.437,540.413,539.01,0.0
52286.0,STARLINK-3802,PAYLOAD,2023-02-07 11:42:51,15.08853108,0.0001308,53.2176,114.8374,79.2361,280.8778,0.00012298,1.671e-05,0.0,0 STARLINK-3802,1 52286U 22041AB  23038.48809292  .00001671  00000-0  12298-3 0  9990,2 52286  53.2176 114.8374 0001308  79.2361 280.8778 15.08853108 44486,6917.84,95.437,540.61,538.8,0.0
52286.0,STARLINK-3802,PAYLOAD,2023-02-08 11:33:38,15.08844595,0.0001132,53.218,110.3749,117.9161,242.1946,2.2566e-05,7.1e-07,0.0,0 STARLINK-3802,1 52286U 22041AB  23039.48169862  .00000071  00000-0  22566-4 0  9996,2 52286  53.2180 110.3749 0001132 117.9161 242.1946 15.08844595 45851,6917.866,95.437,540.514,538.948,0.0
52286.0,STARLINK-3802,PAYLOAD,2023-02-09 05:02:54,15.0883554,9.91e-05,53.2178,107.1045,85.0357,275.0748,-0.00014883,-2.655e-05,0.0,0 STARLINK-3802,1 52286U 22041AB  23040.21035246 -.00002655  00000-0 -14883-3 0  9991,2 52286  53.2178 107.1045 0000991  85.0357 275.0748 15.08835540 45962,6917.894,95.438,540.445,539.073,0.0
52286.0,STARLINK-3802,PAYLOAD,2023-02-09 11:24:26,15.08845315,0.0001142,53.2181,105.9144,114.2305,245.8807,-5.8843e-05,-1.224e-05,0.0,0 STARLINK-3802,1 52286U 22041AB  23040.47530204 -.00001224  00000-0 -58843-4 0  9999,2 52286  53.2181 105.9144 0001142 114.2305 245.8807 15.08845315 44780,6917.864,95.437,540.519,538.939,0.0
52286.0,STARLINK-3802,PAYLOAD,2023-02-09 20:56:45,15.08843571,0.0001036,53.2179,104.1323,109.6494,250.461,-9.6008e-05,-1.816e-05,0.0,0 STARLINK-3802,1 52286U 22041AB  23040.87274469 -.00001816  00000-0 -96008-4 0  9993,2 52286  53.2179 104.1323 0001036 109.6494 250.4610 15.08843571 44849,6917.869,95.437,540.451,539.018,0.0
52286.0,STARLINK-3802,PAYLOAD,2023-02-10 01:42:55,15.08826916,0.0001005,53.2179,103.2405,113.3749,246.7349,3.9906e-05,3.47e-06,0.0,0 STARLINK-3802,1 52286U 22041AB  23041.07147249  .00000347  00000-0  39906-4 0  9991,2 52286  53.2179 103.2405 0001005 113.3749 246.7349 15.08826916 44875,6917.92,95.438,540.481,539.09,0.0
52286.0,STARLINK-3802,PAYLOAD,2023-02-10 20:47:32,15.08837798,0.0001174,53.2189,99.6713,118.4004,241.7107,8.5404e-05,1.072e-05,0.0,0 STARLINK-3802,1 52286U 22041AB  23041.86634480  .00001072  00000-0  85404-4 0  9996,2 52286  53.2189  99.6713 0001174 118.4004 241.7107 15.08837798 44993,6917.887,95.438,540.564,538.94,0.0
52286.0,STARLINK-3802,PAYLOAD,2023-02-11 01:33:43,15.08819413,0.0001267,53.2182,98.7827,83.8149,276.2988,-2.8079e-05,-7.34e-06,0.0,0 STARLINK-3802,1 52286U 22041AB  23042.06508343 -.00000734  00000-0 -28079-4 0  9998,2 52286  53.2182  98.7827 0001267  83.8149 276.2988 15.08819413 46244,6917.943,95.439,540.685,538.932,0.0
52286.0,STARLINK-3802,PAYLOAD,2023-02-11 06:19:52,15.08829397,0.0001279,53.2177,97.8902,77.5588,282.5548,5.6975e-05,6.19e-06,0.0,0 STARLINK-3802,1 52286U 22041AB  23042.26379667  .00000619  00000-0  56975-4 0  9991,2 52286  53.2177  97.8902 0001279  77.5588 282.5548 15.08829397 46279,6917.913,95.438,540.663,538.893,0.0
52286.0,STARLINK-3802,PAYLOAD,2023-02-11 20:38:20,15.08833476,0.0001382,53.2179,95.2131,82.6937,277.4212,1.5816e-05,-3.6e-07,0.0,0 STARLINK-3802,1 52286U 22041AB  23042.85995742 -.00000036  00000-0  15816-4 0  9997,2 52286  53.2179  95.2131 0001382  82.6937 277.4212 15.08833476 45146,6917.9,95.438,540.721,538.809,0.0
52286.0,STARLINK-3802,PAYLOAD,2023-02-12 09:21:25,15.08832639,0.0001256,53.2184,92.8321,88.5221,271.5915,5.7547e-05,6.28e-06,0.0,0 STARLINK-3802,1 52286U 22041AB  23043.38987924  .00000628  00000-0  57547-4 0  9992,2 52286  53.2184  92.8321 0001256  88.5221 271.5915 15.08832639 46446,6917.903,95.438,540.637,538.899,0.0
52286.0,STARLINK-3802,PAYLOAD,2023-02-13 09:12:12,15.08836951,0.0001596,53.218,88.3732,91.7461,268.3714,0.00019129,2.757e-05,0.0,0 STARLINK-3802,1 52286U 22041AB  23044.38347387  .00002757  00000-0  19129-3 0  9994,2 52286  53.2180  88.3732 0001596  91.7461 268.3714 15.08836951 46595,6917.89,95.438,540.859,538.651,0.0
52286.0,STARLINK-3802,PAYLOAD,2023-02-14 02:41:27,15.08828064,0.0001534,53.2178,85.1024,85.055,275.0618,8.3557e-05,1.042e-05,0.0,0 STARLINK-3802,1 52286U 22041AB  23045.11212385  .00001042  00000-0  83557-4 0  9998,2 52286  53.2178  85.1024 0001534  85.0550 275.0618 15.08828064 46705,6917.917,95.438,540.843,538.721,0.0
52286.0,STARLINK-3802,PAYLOAD,2023-02-14 09:02:59,15.08830668,0.0001388,53.2182,83.9116,90.5096,269.6055,9.6136e-05,1.242e-05,0.0,0 STARLINK-3802,1 52286U 22041AB  23045.37708314  .00001242  00000-0  96136-4 0  9997,2 52286  53.2182  83.9116 0001388  90.5096 269.6055 15.08830668 45527,6917.909,95.438,540.734,538.814,0.0
52286.0,STARLINK-3802,PAYLOAD,2023-02-14 23:21:27,15.08839149,0.0001417,53.2179,81.2352,95.1615,264.9539,5.3074e-05,5.57e-06,0.0,0 STARLINK-3802,1 52286U 22041AB  23045.97323854  .00000557  00000-0  53074-4 0  9997,2 52286  53.2179  81.2352 0001417  95.1615 264.9539 15.08839149 46830,6917.883,95.438,540.728,538.768,0.0
52286.0,STARLINK-3802,PAYLOAD,2023-02-15 12:04:32,15.0885191,0.0001466,53.2173,78.854,97.3682,262.7477,3.2123e-05,2.23e-06,0.0,0 STARLINK-3802,1 52286U 22041AB  23046.50315028  .00000223  00000-0  32123-4 0  9993,2 52286  53.2173  78.8540 0001466  97.3682 262.7477 15.08851910 45697,6917.844,95.437,540.723,538.695,0.0
52286.0,STARLINK-3802,PAYLOAD,2023-02-16 05:33:46,15.08841538,0.0001362,53.2171,75.5829,99.1634,260.9513,0.00013419,1.848e-05,0.0,0 STARLINK-3802,1 52286U 22041AB  23047.23179221  .00001848  00000-0  13419-3 0  9997,2 52286  53.2171  75.5829 0001362  99.1634 260.9513 15.08841538 47026,6917.876,95.437,540.683,538.798,0.0
52286.0,STARLINK-3802,PAYLOAD,2023-02-16 11:55:18,15.08859872,0.0001296,53.2181,74.3959,89.5286,270.5855,0.00020701,3.01e-05,0.0,0 STARLINK-3802,1 52286U 22041AB  23047.49673727  .00003010  00000-0  20701-3 0  9990,2 52286  53.2181  74.3959 0001296  89.5286 270.5855 15.08859872 47060,6917.82,95.436,540.581,538.788,0.0
52286.0,STARLINK-3802,PAYLOAD,2023-02-16 18:16:54,15.08819709,0.0002352,53.2179,73.206,87.7691,272.3571,-0.00013583,-2.448e-05,0.0,0 STARLINK-3802,1 52286U 22041AB  23047.76173665 -.00002448  00000-0 -13583-3 0  9992,2 52286  53.2179  73.2060 0002352  87.7691 272.3571 15.08819709 47107,6917.942,95.439,541.435,538.18,0.0
52286.0,STARLINK-3802,PAYLOAD,2023-02-17 08:35:22,15.08816659,0.0001178,53.2181,70.5334,92.6018,267.5109,-6.8795e-05,-1.382e-05,0.0,0 STARLINK-3802,1 52286U 22041AB  23048.35789979 -.00001382  00000-0 -68795-4 0  9991,2 52286  53.2181  70.5334 0001178  92.6018 267.5109 15.08816659 45974,6917.952,95.439,540.632,539.002,0.0
52286.0,STARLINK-3802,PAYLOAD,2023-02-17 18:07:40,15.08830233,0.0001247,53.2193,68.748,109.9942,250.1185,-0.00014085,-2.528e-05,0.0,0 STARLINK-3802,1 52286U 22041AB  23048.75533528 -.00002528  00000-0 -14085-3 0  9997,2 52286  53.2193  68.7480 0001247 109.9942 250.1185 15.08830233 47252,6917.91,95.438,540.638,538.913,0.0
52286.0,STARLINK-3802,PAYLOAD,2023-02-18 10:01:31,15.08836812,0.0001025,53.2183,65.7712,99.07,261.0408,6.8857e-06,-1.78e-06,0.0,0 STARLINK-3802,1 52286U 22041AB  23049.41773100 -.00000178  00000-0  68857-5 0  9999,2 52286  53.2183  65.7712 0001025  99.0700 261.0408 15.08836812 47350,6917.89,95.438,540.464,539.046,0.0
52286.0,STARLINK-3802,PAYLOAD,2023-02-19 09:52:18,15.08837043,8.13e-05,53.2185,61.3108,93.7335,266.375,0.00030827,4.621e-05,0.0,0 STARLINK-3802,1 52286U 22041AB  23050.41132476  .00004621  00000-0  30827-3 0  9996,2 52286  53.2185  61.3108 0000813  93.7335 266.3750 15.08837043 46288,6917.889,95.438,540.317,539.192,0.0
52286.0,STARLINK-3802,PAYLOAD,2023-02-19 17:49:14,15.08839175,8.48e-05,53.2188,59.8243,88.2708,271.8381,0.00015644,2.203e-05,0.0,0 STARLINK-3802,1 52286U 22041AB  23050.74252794  .00002203  00000-0  15644-3 0  9992,2 52286  53.2188  59.8243 0000848  88.2708 271.8381 15.08839175 47554,6917.883,95.438,540.335,539.161,0.0
